NUSAT-1 (FRESCO)        
1 41557U 16033B   21352.56231779  .00003553  00000+0  12217-3 0  9999
2 41557  97.3930  85.6011 0011103 306.3330 110.4243 15.30701525309680
BEESAT-4                
1 41619U 16040W   21352.11807812  .00004651  00000+0  17879-3 0  9993
2 41619  97.2460  42.9457 0011466  48.4080 311.8140 15.26837741293022
CAS-2T & KS-1Q          
1 41847U 16066G   21352.13904008  .00000224  00000+0  43438-4 0  9994
2 41847  98.5784  51.8052 0365475  32.0694 330.2172 14.38301850268289
NAYIF-1 (EO-88)         
1 42017U 17008BX  21352.08746126  .00005615  00000+0  19779-3 0  9999
2 42017  97.2964  56.3398 0006155 160.9595 199.1877 15.29680949269315
ZHUHAI-1 02 (CAS-4B)    
1 42759U 17034B   21352.21558971  .00000807  00000+0  61176-4 0  9992
2 42759  43.0184 250.5540 0008758 239.6984 259.6687 15.10619246248933
ZHUHAI-1 01 (CAS-4A)    
1 42761U 17034D   21352.46609258  .00000937  00000+0  68748-4 0  9993
2 42761  43.0183 248.0948 0009039 242.9561 287.3637 15.10707415248973
MAX VALIER SAT          
1 42778U 17036P   21352.08562430  .00002798  00000+0  11671-3 0  9990
2 42778  97.2325  34.5175 0010051 244.1325 115.8877 15.24445911249256
RADFXSAT (FOX-1B)       
1 43017U 17073E   21351.98969933  .00001508  00000+0  11918-3 0  9997
2 43017  97.6925 248.5673 0254657  61.4088 301.2493 14.80016697220262
FOX-1D (AO-92)          
1 43137U 18004AC  21352.43341431  .00003940  00000+0  15483-3 0  9996
2 43137  97.3913  64.5103 0006853 284.7506  75.2973 15.26253278218707
DIWATA-2B               
1 43678U 18084H   21352.50606185 -.00000088  00000+0 -29121-5 0  9990
2 43678  97.9464 119.0132 0010429 155.8561 204.3163 14.91848134170878
ES'HAIL 2               
1 43700U 18090A   21352.09236663  .00000164  00000+0  00000+0 0  9999
2 43700   0.0018  12.6396 0002261 277.2864 216.0557  1.00270112 11450
FOX-1CLIFF (AO-95)      
1 43770U 18099N   21352.12168115  .00000919  00000+0  87742-4 0  9996
2 43770  97.6458  58.0751 0015058 158.5809 201.6045 14.95592568165906
ITASAT 1                
1 43786U 18099AE  21352.07366876  .00001257  00000+0  11733-3 0  9993
2 43786  97.6485  58.8334 0015916 151.5166 208.6929 14.95852817165937
JY1SAT (JO-97)          
1 43803U 18099AX  21352.13801437  .00001456  00000+0  13403-3 0  9994
2 43803  97.6446  58.6335 0015886 150.9695 209.2413 14.96156969165952
UWE-4                   
1 43880U 18111E   21351.99754794  .00000716  00000+0  66890-4 0  9997
2 43880  97.6777 256.4957 0011448 204.4235 155.6446 14.97177908160544
NEXUS (FO-99)           
1 43937U 19003F   21351.82987696  .00004182  00000+0  15955-3 0  9998
2 43937  97.1550  27.5569 0024218  82.3366 278.0623 15.26919761162233
PSAT2 (NO-104)          
1 44354U 19036R   21351.65310064  .00020301  00000+0  24239-3 0  9994
2 44354  28.5261 339.2379 0295788 112.7581 250.4548 15.21459663136826
BRICSAT2 (NO-103)       
1 44355U 19036S   21352.05701720  .00060535 -57347-5  47486-3 0  9998
2 44355  28.5254 252.7652 0196887 253.7398 104.1462 15.48306584137715
JAISAT-1                
1 44419U 19038F   21351.89676299  .00003126  00000+0  17210-3 0  9996
2 44419  97.6134 316.2622 0021937  42.8598 317.4339 15.14591280135559
DUCHIFAT-3              
1 44854U 19089C   21352.42648180  .00000978  00000+0  83762-4 0  9991
2 44854  36.9653  92.3943 0007064 197.6227 162.4297 14.99860845110737
CAS-6 (TO-108)          
1 44881U 19093C   21352.51656977  .00000106  00000+0  20180-4 0  9997
2 44881  97.9115  69.2072 0016351  57.6206 302.6591 14.81522804107983
RS-44 & BREEZE-KM R/B   
1 44909U 19096E   21351.73038569  .00000033  00000+0  84883-4 0  9994
2 44909  82.5211 351.0305 0217897  24.9009 336.2418 12.79711703 92266
ORBITAL FACTORY 2 (OF-2)
1 45113U 19071C   21351.86150468  .00007916  00000+0  21863-3 0  9997
2 45113  51.6407 226.9900 0010600 231.5726 128.4307 15.37956717105372
HUSKYSAT-1 (HO-107)     
1 45119U 19071J   21351.87848431  .00006908  00000+0  19313-3 0  9995
2 45119  51.6398 226.3413 0010147 227.8514 132.1608 15.37802850105373
BY70-2                  
1 45857U 20042B   21352.46712127  .00001679  00000+0  24140-3 0  9996
2 45857  97.9724  66.2542 0009936 346.6822  13.4149 14.77693447 78719
SALSAT                  
1 46495U 20068K   21351.87300645  .00000051  00000+0  82909-5 0  9997
2 46495  97.7109 288.4537 0016885 165.1024 195.0703 15.03709517 66899
BY70-3                  
1 46839U 20079N   21352.46395925  .00005979  00000+0  17506-3 0  9995
2 46839  97.2238  62.6879 0005154 263.9434 152.7834 15.35586363 62426
RADFXSAT-2 (AO-109)     
1 47311U 21002C   21352.29527958  .00002884  00000+0  13335-3 0  9990
2 47311  60.6862 322.5773 0032989 141.6968 218.6471 15.22564450 50863
UVSQ-SAT                
1 47438U 21006AB  21352.12403958  .00002018  00000+0  11541-3 0  9995
2 47438  97.4653  49.8818 0012609 176.6944 183.4373 15.13746169 49831
DIY-1 (ARDUIQUBE)       
1 47963U 21022AH  21351.72148948  .00005365  00000+0  34536-3 0  9993
2 47963  97.5467 250.7887 0020565  41.2017 319.0759 15.08609270 39519
